{
  "norad_id": 53283,
  "name": "STARLINK-4175",
  "history": [
    {
      "epoch": "2026-03-28T17:55:59.109024Z",
      "apogee_km": 540.704343937794,
      "perigee_km": 538.8150663476199,
      "latitude_deg": -1.7717425592453216e-05,
      "longitude_deg": 3.410577694101337,
      "height_km": 540.5915404442377,
      "semi_major_axis_km": 6917.896705142707,
      "eccentricity": 0.00013655,
      "inclination_deg": 53.2166,
      "raan_deg": 98.5701,
      "arg_perigee_deg": 86.1283,
      "mean_anomaly_deg": 273.9865,
      "mean_motion_rev_day": 15.08834662
    },
    {
      "epoch": "2026-03-29T05:03:40.958208Z",
      "apogee_km": 540.7206973712637,
      "perigee_km": 538.7823050132292,
      "latitude_deg": 5.054092720225492e-05,
      "longitude_deg": -166.05316583451057,
      "height_km": 540.5899834990263,
      "semi_major_axis_km": 6917.888501192246,
      "eccentricity": 0.0001401,
      "inclination_deg": 53.2169,
      "raan_deg": 96.4877,
      "arg_perigee_deg": 86.6219,
      "mean_anomaly_deg": 273.4934,
      "mean_motion_rev_day": 15.08837346
    },
    {
      "epoch": "2026-03-30T04:54:27.635328Z",
      "apogee_km": 540.6750509257517,
      "perigee_km": 538.8036270185339,
      "latitude_deg": 1.605665083965748e-05,
      "longitude_deg": -169.18721154661125,
      "height_km": 540.5761300912487,
      "semi_major_axis_km": 6917.876338972143,
      "eccentricity": 0.00013526,
      "inclination_deg": 53.217,
      "raan_deg": 92.0275,
      "arg_perigee_deg": 86.3919,
      "mean_anomaly_deg": 273.7228,
      "mean_motion_rev_day": 15.08841325
    },
    {
      "epoch": "2026-03-30T09:40:36.810048Z",
      "apogee_km": 540.6661291138753,
      "perigee_km": 538.7904191234511,
      "latitude_deg": -1.7092780486534826e-05,
      "longitude_deg": 118.18607132679043,
      "height_km": 540.570568700157,
      "semi_major_axis_km": 6917.8652741186625,
      "eccentricity": 0.00013557,
      "inclination_deg": 53.2168,
      "raan_deg": 91.1349,
      "arg_perigee_deg": 86.7382,
      "mean_anomaly_deg": 273.3765,
      "mean_motion_rev_day": 15.08844945
    },
    {
      "epoch": "2026-03-30T17:37:32.688768Z",
      "apogee_km": 540.6716107768807,
      "perigee_km": 538.8026778980475,
      "latitude_deg": 2.437619287386363e-05,
      "longitude_deg": -2.860373339743237,
      "height_km": 540.5851470613131,
      "semi_major_axis_km": 6917.874144337464,
      "eccentricity": 0.00013508,
      "inclination_deg": 53.2165,
      "raan_deg": 89.6477,
      "arg_perigee_deg": 87.0789,
      "mean_anomaly_deg": 273.0358,
      "mean_motion_rev_day": 15.08842043
    },
    {
      "epoch": "2026-03-31T09:31:24.060864Z",
      "apogee_km": 540.6944481301807,
      "perigee_km": 538.7763988220486,
      "latitude_deg": 2.2341848793009517e-06,
      "longitude_deg": 115.04886929015187,
      "height_km": 540.6206101648612,
      "semi_major_axis_km": 6917.872423476115,
      "eccentricity": 0.00013863,
      "inclination_deg": 53.2169,
      "raan_deg": 86.6739,
      "arg_perigee_deg": 89.3768,
      "mean_anomaly_deg": 270.7383,
      "mean_motion_rev_day": 15.08842606
    },
    {
      "epoch": "2026-04-01T04:36:02.453184Z",
      "apogee_km": 540.7789741697752,
      "perigee_km": 538.7458035393911,
      "latitude_deg": -8.952646188232678e-06,
      "longitude_deg": -175.46438409715267,
      "height_km": 540.7298410145914,
      "semi_major_axis_km": 6917.899388854583,
      "eccentricity": 0.00014695,
      "inclination_deg": 53.2169,
      "raan_deg": 83.1041,
      "arg_perigee_deg": 94.0585,
      "mean_anomaly_deg": 266.0575,
      "mean_motion_rev_day": 15.08833784
    },
    {
      "epoch": "2026-04-02T15:34:31.381248Z",
      "apogee_km": 540.6644085286225,
      "perigee_km": 538.8477698034076,
      "latitude_deg": -1.0431947365201543e-05,
      "longitude_deg": 11.937922670527358,
      "height_km": 540.582827027895,
      "semi_major_axis_km": 6917.893089166015,
      "eccentricity": 0.0001313,
      "inclination_deg": 53.2169,
      "raan_deg": 76.5633,
      "arg_perigee_deg": 85.6442,
      "mean_anomaly_deg": 274.47,
      "mean_motion_rev_day": 15.08835845
    },
    {
      "epoch": "2026-04-03T15:25:18.568128Z",
      "apogee_km": 540.6572505978784,
      "perigee_km": 538.847530733281,
      "latitude_deg": 2.9318589977148115e-05,
      "longitude_deg": 8.801901898780859,
      "height_km": 540.5855877946079,
      "semi_major_axis_km": 6917.889390665579,
      "eccentricity": 0.0001308,
      "inclination_deg": 53.217,
      "raan_deg": 72.1032,
      "arg_perigee_deg": 86.0369,
      "mean_anomaly_deg": 274.0773,
      "mean_motion_rev_day": 15.08837055
    },
    {
      "epoch": "2026-04-04T07:19:10.630560Z",
      "apogee_km": 540.7516432031543,
      "perigee_km": 538.7803175698627,
      "latitude_deg": -2.820397192972162e-05,
      "longitude_deg": 126.70943276674613,
      "height_km": 540.687481041525,
      "semi_major_axis_km": 6917.902980386508,
      "eccentricity": 0.00014248,
      "inclination_deg": 53.2175,
      "raan_deg": 69.1306,
      "arg_perigee_deg": 91.5041,
      "mean_anomaly_deg": 268.6114,
      "mean_motion_rev_day": 15.08832609
    },
    {
      "epoch": "2026-04-05T07:09:57.131424Z",
      "apogee_km": 540.7599717148887,
      "perigee_km": 538.7122812694461,
      "latitude_deg": -4.0655778759843934e-05,
      "longitude_deg": 123.57593801565262,
      "height_km": 540.579598060039,
      "semi_major_axis_km": 6917.873126492167,
      "eccentricity": 0.000148,
      "inclination_deg": 53.2182,
      "raan_deg": 64.6702,
      "arg_perigee_deg": 87.0796,
      "mean_anomaly_deg": 273.0365,
      "mean_motion_rev_day": 15.08842376
    },
    {
      "epoch": "2026-04-05T15:06:52.797600Z",
      "apogee_km": 540.7502115310617,
      "perigee_km": 538.7246578965769,
      "latitude_deg": -3.85631792682075e-05,
      "longitude_deg": 2.530451119619132,
      "height_km": 540.5626350913558,
      "semi_major_axis_km": 6917.874434713819,
      "eccentricity": 0.0001464,
      "inclination_deg": 53.2181,
      "raan_deg": 63.1831,
      "arg_perigee_deg": 86.0113,
      "mean_anomaly_deg": 274.1046,
      "mean_motion_rev_day": 15.08841948
    },
    {
      "epoch": "2026-04-06T03:49:57.712800Z",
      "apogee_km": 540.7170491070619,
      "perigee_km": 538.7598437857532,
      "latitude_deg": -3.558998273206458e-05,
      "longitude_deg": 168.85856125565056,
      "height_km": 540.5388703304636,
      "semi_major_axis_km": 6917.875446446407,
      "eccentricity": 0.00014146,
      "inclination_deg": 53.2176,
      "raan_deg": 60.804,
      "arg_perigee_deg": 84.4147,
      "mean_anomaly_deg": 275.7006,
      "mean_motion_rev_day": 15.08841617
    },
    {
      "epoch": "2026-04-07T03:40:44.668992Z",
      "apogee_km": 540.7696480260756,
      "perigee_km": 538.6895838919891,
      "latitude_deg": -2.8360702863310803e-05,
      "longitude_deg": 165.72097740449848,
      "height_km": 540.743093853449,
      "semi_major_axis_km": 6917.866615959032,
      "eccentricity": 0.00015034,
      "inclination_deg": 53.2189,
      "raan_deg": 56.3414,
      "arg_perigee_deg": 96.5033,
      "mean_anomaly_deg": 263.613,
      "mean_motion_rev_day": 15.08844506
    },
    {
      "epoch": "2026-04-08T03:31:31.842912Z",
      "apogee_km": 540.7206072546696,
      "perigee_km": 538.7618792088806,
      "latitude_deg": -1.7023812712822024e-05,
      "longitude_deg": 162.5845865202178,
      "height_km": 540.681962471502,
      "semi_major_axis_km": 6917.878243231775,
      "eccentricity": 0.00014157,
      "inclination_deg": 53.2183,
      "raan_deg": 51.8809,
      "arg_perigee_deg": 92.633,
      "mean_anomaly_deg": 267.4824,
      "mean_motion_rev_day": 15.08840702
    },
    {
      "epoch": "2026-04-09T12:54:38.125728Z",
      "apogee_km": 540.7261402712002,
      "perigee_km": 538.7894064504508,
      "latitude_deg": 4.0610992208596194e-05,
      "longitude_deg": 14.19417031483678,
      "height_km": 540.6799589272598,
      "semi_major_axis_km": 6917.894773360826,
      "eccentricity": 0.00013998,
      "inclination_deg": 53.2185,
      "raan_deg": 45.6377,
      "arg_perigee_deg": 91.5637,
      "mean_anomaly_deg": 268.5516,
      "mean_motion_rev_day": 15.08835294
    },
    {
      "epoch": "2026-04-10T06:23:52.741824Z",
      "apogee_km": 540.761271874152,
      "perigee_km": 538.7566039892581,
      "latitude_deg": -3.4417326050606467e-06,
      "longitude_deg": 107.89435345620288,
      "height_km": 540.695856850097,
      "semi_major_axis_km": 6917.895937931705,
      "eccentricity": 0.00014489,
      "inclination_deg": 53.2183,
      "raan_deg": 42.367,
      "arg_perigee_deg": 92.3581,
      "mean_anomaly_deg": 267.7577,
      "mean_motion_rev_day": 15.08834913
    },
    {
      "epoch": "2026-04-11T12:36:12.911616Z",
      "apogee_km": 540.8974615276966,
      "perigee_km": 538.6297737052428,
      "latitude_deg": 1.749111686119702e-05,
      "longitude_deg": 7.920025627980154,
      "height_km": 540.5338834744862,
      "semi_major_axis_km": 6917.900617616469,
      "eccentricity": 0.0001639,
      "inclination_deg": 53.219,
      "raan_deg": 36.7172,
      "arg_perigee_deg": 83.6589,
      "mean_anomaly_deg": 276.459,
      "mean_motion_rev_day": 15.08833382
    },
    {
      "epoch": "2026-04-13T04:20:51.111168Z",
      "apogee_km": 540.715742207838,
      "perigee_km": 538.7665608598618,
      "latitude_deg": -3.566219802600678e-05,
      "longitude_deg": 122.69539437238352,
      "height_km": 540.5976471718412,
      "semi_major_axis_km": 6917.87815153385,
      "eccentricity": 0.00014088,
      "inclination_deg": 53.2186,
      "raan_deg": 29.284,
      "arg_perigee_deg": 87.6902,
      "mean_anomaly_deg": 272.4251,
      "mean_motion_rev_day": 15.08840732
    }
  ]
}